STARLINK-35365          
1 66186U 25243K   25328.83337963 -.02080795  00000+0 -58589-1 0  9993
2 66186  53.1598  12.5614 0001156  55.2680  35.2170 15.39680310  5704
STARLINK-35350          
1 66187U 25243L   25328.83337963 -.02023408  00000+0 -62515-1 0  9996
2 66187  53.1594  12.6085 0000916  88.2491 338.4351 15.36753195  5701
STARLINK-35041          
1 66188U 25243M   25328.83337963 -.02089561  00000+0 -53605-1 0  9999
2 66188  53.1594  12.5055 0001415  68.8636  49.5582 15.42469542  5756
STARLINK-34694          
1 66189U 25243N   25328.83337963 -.02054831  00000+0 -49159-1 0  9991
2 66189  53.1594  12.4781 0001155  66.5950  65.0252 15.44457527  5701
STARLINK-34863          
1 66190U 25243P   25328.83337963 -.02017337  00000+0 -55197-1 0  9992
2 66190  53.1594  12.5372 0001176  59.1278  42.7863 15.40423382  5702
STARLINK-35061          
1 66191U 25243Q   25328.83337963 -.01996069  00000+0 -66060-1 0  9991
2 66191  53.1585  12.6060 0000981  82.9778 343.1563 15.34574458  5754
STARLINK-34937          
1 66192U 25243R   25328.83337963 -.02352118  00000+0 -80031-1 0  9998
2 66192  53.1590  12.6378 0001664  62.8015 348.2692 15.33709319  5498
STARLINK-35197          
1 66193U 25243S   25328.54871742  .00080261  00000+0  14350-2 0  9990
2 66193  53.1599  13.8045 0001160  73.4508 286.6628 15.49336192  4550
STARLINK-35374          
1 66194U 25243T   25328.61363039 -.00142186  00000+0 -26314-2 0  9994
2 66194  53.1599  13.4982 0000985  89.8866 270.2256 15.48915844  4562
STARLINK-34813          
1 66195U 25243U   25328.67875080 -.00403002  00000+0 -80597-2 0  9995
2 66195  53.1606  13.1948 0001633 155.2784 204.8302 15.47702682  4578
STARLINK-35409          
1 66196U 25243V   25328.83337963 -.02052622  00000+0 -47344-1 0  9999
2 66196  53.1601  12.4674 0001127  62.5560  74.6393 15.45514198  5702
STARLINK-35518          
1 66197U 25243X   25328.83337963 -.02088237  00000+0 -51765-1 0  9993
2 66197  53.1597  12.4912 0001347  58.8620  66.5833 15.43476851  5701
