CCSDS_OMM_VERS = 2.0
CREATION_DATE  = 
ORIGINATOR     = 

OBJECT_NAME    = STARLINK-35365
OBJECT_ID      = 2025-243K
CENTER_NAME    = EARTH
REF_FRAME      = TEME
TIME_SYSTEM    = UTC
MEAN_ELEMENT_THEORY = SGP/SGP4

EPOCH          = 2025-11-24T20:00:04.000032
MEAN_MOTION    = 15.39680310
ECCENTRICITY   = .0001156
INCLINATION    = 53.1598
RA_OF_ASC_NODE = 12.5614
ARG_OF_PERICENTER = 55.2680
MEAN_ANOMALY   = 35.2170

EPHEMERIS_TYPE = 0
CLASSIFICATION_TYPE = U
NORAD_CAT_ID   = 66186
ELEMENT_SET_NO = 999
REV_AT_EPOCH   = 570
BSTAR          = -.58589E-1
MEAN_MOTION_DOT = -.2080795E-1
MEAN_MOTION_DDOT = 0

CCSDS_OMM_VERS = 2.0
CREATION_DATE  = 
ORIGINATOR     = 

OBJECT_NAME    = STARLINK-35350
OBJECT_ID      = 2025-243L
CENTER_NAME    = EARTH
REF_FRAME      = TEME
TIME_SYSTEM    = UTC
MEAN_ELEMENT_THEORY = SGP/SGP4

EPOCH          = 2025-11-24T20:00:04.000032
MEAN_MOTION    = 15.36753195
ECCENTRICITY   = .0000916
INCLINATION    = 53.1594
RA_OF_ASC_NODE = 12.6085
ARG_OF_PERICENTER = 88.2491
MEAN_ANOMALY   = 338.4351

EPHEMERIS_TYPE = 0
CLASSIFICATION_TYPE = U
NORAD_CAT_ID   = 66187
ELEMENT_SET_NO = 999
REV_AT_EPOCH   = 570
BSTAR          = -.62515E-1
MEAN_MOTION_DOT = -.2023408E-1
MEAN_MOTION_DDOT = 0

CCSDS_OMM_VERS = 2.0
CREATION_DATE  = 
ORIGINATOR     = 

OBJECT_NAME    = STARLINK-35041
OBJECT_ID      = 2025-243M
CENTER_NAME    = EARTH
REF_FRAME      = TEME
TIME_SYSTEM    = UTC
MEAN_ELEMENT_THEORY = SGP/SGP4

EPOCH          = 2025-11-24T20:00:04.000032
MEAN_MOTION    = 15.42469542
ECCENTRICITY   = .0001415
INCLINATION    = 53.1594
RA_OF_ASC_NODE = 12.5055
ARG_OF_PERICENTER = 68.8636
MEAN_ANOMALY   = 49.5582

EPHEMERIS_TYPE = 0
CLASSIFICATION_TYPE = U
NORAD_CAT_ID   = 66188
ELEMENT_SET_NO = 999
REV_AT_EPOCH   = 575
BSTAR          = -.53605E-1
MEAN_MOTION_DOT = -.2089561E-1
MEAN_MOTION_DDOT = 0

CCSDS_OMM_VERS = 2.0
CREATION_DATE  = 
ORIGINATOR     = 

OBJECT_NAME    = STARLINK-34694
OBJECT_ID      = 2025-243N
CENTER_NAME    = EARTH
REF_FRAME      = TEME
TIME_SYSTEM    = UTC
MEAN_ELEMENT_THEORY = SGP/SGP4

EPOCH          = 2025-11-24T20:00:04.000032
MEAN_MOTION    = 15.44457527
ECCENTRICITY   = .0001155
INCLINATION    = 53.1594
RA_OF_ASC_NODE = 12.4781
ARG_OF_PERICENTER = 66.5950
MEAN_ANOMALY   = 65.0252

EPHEMERIS_TYPE = 0
CLASSIFICATION_TYPE = U
NORAD_CAT_ID   = 66189
ELEMENT_SET_NO = 999
REV_AT_EPOCH   = 570
BSTAR          = -.49159E-1
MEAN_MOTION_DOT = -.2054831E-1
MEAN_MOTION_DDOT = 0

CCSDS_OMM_VERS = 2.0
CREATION_DATE  = 
ORIGINATOR     = 

OBJECT_NAME    = STARLINK-34863
OBJECT_ID      = 2025-243P
CENTER_NAME    = EARTH
REF_FRAME      = TEME
TIME_SYSTEM    = UTC
MEAN_ELEMENT_THEORY = SGP/SGP4

EPOCH          = 2025-11-24T20:00:04.000032
MEAN_MOTION    = 15.40423382
ECCENTRICITY   = .0001176
INCLINATION    = 53.1594
RA_OF_ASC_NODE = 12.5372
ARG_OF_PERICENTER = 59.1278
MEAN_ANOMALY   = 42.7863

EPHEMERIS_TYPE = 0
CLASSIFICATION_TYPE = U
NORAD_CAT_ID   = 66190
ELEMENT_SET_NO = 999
REV_AT_EPOCH   = 570
BSTAR          = -.55197E-1
MEAN_MOTION_DOT = -.2017337E-1
MEAN_MOTION_DDOT = 0

CCSDS_OMM_VERS = 2.0
CREATION_DATE  = 
ORIGINATOR     = 

OBJECT_NAME    = STARLINK-35061
OBJECT_ID      = 2025-243Q
CENTER_NAME    = EARTH
REF_FRAME      = TEME
TIME_SYSTEM    = UTC
MEAN_ELEMENT_THEORY = SGP/SGP4

EPOCH          = 2025-11-24T20:00:04.000032
MEAN_MOTION    = 15.34574458
ECCENTRICITY   = .0000981
INCLINATION    = 53.1585
RA_OF_ASC_NODE = 12.6060
ARG_OF_PERICENTER = 82.9778
MEAN_ANOMALY   = 343.1563

EPHEMERIS_TYPE = 0
CLASSIFICATION_TYPE = U
NORAD_CAT_ID   = 66191
ELEMENT_SET_NO = 999
REV_AT_EPOCH   = 575
BSTAR          = -.6606E-1
MEAN_MOTION_DOT = -.1996069E-1
MEAN_MOTION_DDOT = 0

CCSDS_OMM_VERS = 2.0
CREATION_DATE  = 
ORIGINATOR     = 

OBJECT_NAME    = STARLINK-34937
OBJECT_ID      = 2025-243R
CENTER_NAME    = EARTH
REF_FRAME      = TEME
TIME_SYSTEM    = UTC
MEAN_ELEMENT_THEORY = SGP/SGP4

EPOCH          = 2025-11-24T20:00:04.000032
MEAN_MOTION    = 15.33709319
ECCENTRICITY   = .0001664
INCLINATION    = 53.1590
RA_OF_ASC_NODE = 12.6378
ARG_OF_PERICENTER = 62.8015
MEAN_ANOMALY   = 348.2692

EPHEMERIS_TYPE = 0
CLASSIFICATION_TYPE = U
NORAD_CAT_ID   = 66192
ELEMENT_SET_NO = 999
REV_AT_EPOCH   = 549
BSTAR          = -.80031E-1
MEAN_MOTION_DOT = -.2352118E-1
MEAN_MOTION_DDOT = 0

CCSDS_OMM_VERS = 2.0
CREATION_DATE  = 
ORIGINATOR     = 

OBJECT_NAME    = STARLINK-35197
OBJECT_ID      = 2025-243S
CENTER_NAME    = EARTH
REF_FRAME      = TEME
TIME_SYSTEM    = UTC
MEAN_ELEMENT_THEORY = SGP/SGP4

EPOCH          = 2025-11-24T13:10:09.185088
MEAN_MOTION    = 15.49336192
ECCENTRICITY   = .000116
INCLINATION    = 53.1599
RA_OF_ASC_NODE = 13.8045
ARG_OF_PERICENTER = 73.4508
MEAN_ANOMALY   = 286.6628

EPHEMERIS_TYPE = 0
CLASSIFICATION_TYPE = U
NORAD_CAT_ID   = 66193
ELEMENT_SET_NO = 999
REV_AT_EPOCH   = 455
BSTAR          = .1435E-2
MEAN_MOTION_DOT = .80261E-3
MEAN_MOTION_DDOT = 0

CCSDS_OMM_VERS = 2.0
CREATION_DATE  = 
ORIGINATOR     = 

OBJECT_NAME    = STARLINK-35374
OBJECT_ID      = 2025-243T
CENTER_NAME    = EARTH
REF_FRAME      = TEME
TIME_SYSTEM    = UTC
MEAN_ELEMENT_THEORY = SGP/SGP4

EPOCH          = 2025-11-24T14:43:37.665696
MEAN_MOTION    = 15.48915844
ECCENTRICITY   = .0000985
INCLINATION    = 53.1599
RA_OF_ASC_NODE = 13.4982
ARG_OF_PERICENTER = 89.8866
MEAN_ANOMALY   = 270.2256

EPHEMERIS_TYPE = 0
CLASSIFICATION_TYPE = U
NORAD_CAT_ID   = 66194
ELEMENT_SET_NO = 999
REV_AT_EPOCH   = 456
BSTAR          = -.26314E-2
MEAN_MOTION_DOT = -.142186E-2
MEAN_MOTION_DDOT = 0

CCSDS_OMM_VERS = 2.0
CREATION_DATE  = 
ORIGINATOR     = 

OBJECT_NAME    = STARLINK-34813
OBJECT_ID      = 2025-243U
CENTER_NAME    = EARTH
REF_FRAME      = TEME
TIME_SYSTEM    = UTC
MEAN_ELEMENT_THEORY = SGP/SGP4

EPOCH          = 2025-11-24T16:17:24.069120
MEAN_MOTION    = 15.47702682
ECCENTRICITY   = .0001633
INCLINATION    = 53.1606
RA_OF_ASC_NODE = 13.1948
ARG_OF_PERICENTER = 155.2784
MEAN_ANOMALY   = 204.8302

EPHEMERIS_TYPE = 0
CLASSIFICATION_TYPE = U
NORAD_CAT_ID   = 66195
ELEMENT_SET_NO = 999
REV_AT_EPOCH   = 457
BSTAR          = -.80597E-2
MEAN_MOTION_DOT = -.403002E-2
MEAN_MOTION_DDOT = 0

CCSDS_OMM_VERS = 2.0
CREATION_DATE  = 
ORIGINATOR     = 

OBJECT_NAME    = STARLINK-35409
OBJECT_ID      = 2025-243V
CENTER_NAME    = EARTH
REF_FRAME      = TEME
TIME_SYSTEM    = UTC
MEAN_ELEMENT_THEORY = SGP/SGP4

EPOCH          = 2025-11-24T20:00:04.000032
MEAN_MOTION    = 15.45514198
ECCENTRICITY   = .0001127
INCLINATION    = 53.1601
RA_OF_ASC_NODE = 12.4674
ARG_OF_PERICENTER = 62.5560
MEAN_ANOMALY   = 74.6393

EPHEMERIS_TYPE = 0
CLASSIFICATION_TYPE = U
NORAD_CAT_ID   = 66196
ELEMENT_SET_NO = 999
REV_AT_EPOCH   = 570
BSTAR          = -.47344E-1
MEAN_MOTION_DOT = -.2052622E-1
MEAN_MOTION_DDOT = 0

CCSDS_OMM_VERS = 2.0
CREATION_DATE  = 
ORIGINATOR     = 

OBJECT_NAME    = STARLINK-35518
OBJECT_ID      = 2025-243X
CENTER_NAME    = EARTH
REF_FRAME      = TEME
TIME_SYSTEM    = UTC
MEAN_ELEMENT_THEORY = SGP/SGP4

EPOCH          = 2025-11-24T20:00:04.000032
MEAN_MOTION    = 15.43476851
ECCENTRICITY   = .0001347
INCLINATION    = 53.1597
RA_OF_ASC_NODE = 12.4912
ARG_OF_PERICENTER = 58.8620
MEAN_ANOMALY   = 66.5833

EPHEMERIS_TYPE = 0
CLASSIFICATION_TYPE = U
NORAD_CAT_ID   = 66197
ELEMENT_SET_NO = 999
REV_AT_EPOCH   = 570
BSTAR          = -.51765E-1
MEAN_MOTION_DOT = -.2088237E-1
MEAN_MOTION_DDOT = 0

